CCSDS_OMM_VERS = 2.0
CREATION_DATE  = 
ORIGINATOR     = 

OBJECT_NAME    = SL-14 R/B
OBJECT_ID      = 1986-046B
CENTER_NAME    = EARTH
REF_FRAME      = TEME
TIME_SYSTEM    = UTC
MEAN_ELEMENT_THEORY = SGP/SGP4

EPOCH          = 2026-02-17T12:48:00.390240
MEAN_MOTION    = 14.85570007
ECCENTRICITY   = .0021632
INCLINATION    = 82.4799
RA_OF_ASC_NODE = 99.2315
ARG_OF_PERICENTER = 296.2439
MEAN_ANOMALY   = 63.6554

EPHEMERIS_TYPE = 0
CLASSIFICATION_TYPE = U
NORAD_CAT_ID   = 16792
ELEMENT_SET_NO = 999
REV_AT_EPOCH   = 12341
BSTAR          = .4596735E-4
MEAN_MOTION_DOT = .423E-5
MEAN_MOTION_DDOT = 0

CCSDS_OMM_VERS = 2.0
CREATION_DATE  = 
ORIGINATOR     = 

OBJECT_NAME    = SL-14 R/B
OBJECT_ID      = 1986-055B
CENTER_NAME    = EARTH
REF_FRAME      = TEME
TIME_SYSTEM    = UTC
MEAN_ELEMENT_THEORY = SGP/SGP4

EPOCH          = 2026-02-17T07:50:56.458176
MEAN_MOTION    = 14.85621730
ECCENTRICITY   = .0019896
INCLINATION    = 82.5232
RA_OF_ASC_NODE = 145.8085
ARG_OF_PERICENTER = 43.2685
MEAN_ANOMALY   = 15.2827

EPHEMERIS_TYPE = 0
CLASSIFICATION_TYPE = U
NORAD_CAT_ID   = 16882
ELEMENT_SET_NO = 999
REV_AT_EPOCH   = 11634
BSTAR          = .57821E-4
MEAN_MOTION_DOT = .527E-5
MEAN_MOTION_DDOT = 0

CCSDS_OMM_VERS = 2.0
CREATION_DATE  = 
ORIGINATOR     = 

OBJECT_NAME    = AJISAI (EGS)
OBJECT_ID      = 1986-061A
CENTER_NAME    = EARTH
REF_FRAME      = TEME
TIME_SYSTEM    = UTC
MEAN_ELEMENT_THEORY = SGP/SGP4

EPOCH          = 2026-02-17T13:40:39.418752
MEAN_MOTION    = 12.44515380
ECCENTRICITY   = .00112345
INCLINATION    = 50.0088
RA_OF_ASC_NODE = 155.2162
ARG_OF_PERICENTER = 235.1852
MEAN_ANOMALY   = 245.4766

EPHEMERIS_TYPE = 0
CLASSIFICATION_TYPE = U
NORAD_CAT_ID   = 16908
ELEMENT_SET_NO = 999
REV_AT_EPOCH   = 46549
BSTAR          = -.33388418E-4
MEAN_MOTION_DOT = -.102E-5
MEAN_MOTION_DDOT = 0

CCSDS_OMM_VERS = 2.0
CREATION_DATE  = 
ORIGINATOR     = 

OBJECT_NAME    = COSMOS 1812
OBJECT_ID      = 1987-003A
CENTER_NAME    = EARTH
REF_FRAME      = TEME
TIME_SYSTEM    = UTC
MEAN_ELEMENT_THEORY = SGP/SGP4

EPOCH          = 2026-02-17T13:39:32.552928
MEAN_MOTION    = 16.01292498
ECCENTRICITY   = .00029592
INCLINATION    = 82.4748
RA_OF_ASC_NODE = 218.5657
ARG_OF_PERICENTER = 301.1914
MEAN_ANOMALY   = 58.9075

EPHEMERIS_TYPE = 0
CLASSIFICATION_TYPE = U
NORAD_CAT_ID   = 17295
ELEMENT_SET_NO = 999
REV_AT_EPOCH   = 14124
BSTAR          = .71707831E-3
MEAN_MOTION_DOT = .391259E-2
MEAN_MOTION_DDOT = .64614462E-4

CCSDS_OMM_VERS = 2.0
CREATION_DATE  = 
ORIGINATOR     = 

OBJECT_NAME    = SL-14 R/B
OBJECT_ID      = 1987-024B
CENTER_NAME    = EARTH
REF_FRAME      = TEME
TIME_SYSTEM    = UTC
MEAN_ELEMENT_THEORY = SGP/SGP4

EPOCH          = 2026-02-17T13:46:41.996352
MEAN_MOTION    = 14.86112329
ECCENTRICITY   = .00173781
INCLINATION    = 82.5275
RA_OF_ASC_NODE = 111.6719
ARG_OF_PERICENTER = 331.8019
MEAN_ANOMALY   = 28.2255

EPHEMERIS_TYPE = 0
CLASSIFICATION_TYPE = U
NORAD_CAT_ID   = 17567
ELEMENT_SET_NO = 999
REV_AT_EPOCH   = 8514
BSTAR          = .46428602E-4
MEAN_MOTION_DOT = .432E-5
MEAN_MOTION_DDOT = 0

CCSDS_OMM_VERS = 2.0
CREATION_DATE  = 
ORIGINATOR     = 

OBJECT_NAME    = COSMOS 1833
OBJECT_ID      = 1987-027A
CENTER_NAME    = EARTH
REF_FRAME      = TEME
TIME_SYSTEM    = UTC
MEAN_ELEMENT_THEORY = SGP/SGP4

EPOCH          = 2026-02-17T07:57:05.253120
MEAN_MOTION    = 14.13057385
ECCENTRICITY   = .00248617
INCLINATION    = 70.9227
RA_OF_ASC_NODE = 8.8029
ARG_OF_PERICENTER = 242.2527
MEAN_ANOMALY   = 117.6073

EPHEMERIS_TYPE = 0
CLASSIFICATION_TYPE = U
NORAD_CAT_ID   = 17589
ELEMENT_SET_NO = 999
REV_AT_EPOCH   = 744
BSTAR          = .1518808E-5
MEAN_MOTION_DOT = -.45E-6
MEAN_MOTION_DDOT = 0

CCSDS_OMM_VERS = 2.0
CREATION_DATE  = 
ORIGINATOR     = 

OBJECT_NAME    = SL-16 R/B
OBJECT_ID      = 1987-027B
CENTER_NAME    = EARTH
REF_FRAME      = TEME
TIME_SYSTEM    = UTC
MEAN_ELEMENT_THEORY = SGP/SGP4

EPOCH          = 2026-02-17T03:39:10.254528
MEAN_MOTION    = 14.17163565
ECCENTRICITY   = .00045753
INCLINATION    = 71.0042
RA_OF_ASC_NODE = 319.7724
ARG_OF_PERICENTER = 179.2491
MEAN_ANOMALY   = 180.8640

EPHEMERIS_TYPE = 0
CLASSIFICATION_TYPE = U
NORAD_CAT_ID   = 17590
ELEMENT_SET_NO = 999
REV_AT_EPOCH   = 1243
BSTAR          = .11992963E-3
MEAN_MOTION_DOT = .194E-5
MEAN_MOTION_DDOT = 0

CCSDS_OMM_VERS = 2.0
CREATION_DATE  = 
ORIGINATOR     = 

OBJECT_NAME    = SL-14 R/B
OBJECT_ID      = 1987-038B
CENTER_NAME    = EARTH
REF_FRAME      = TEME
TIME_SYSTEM    = UTC
MEAN_ELEMENT_THEORY = SGP/SGP4

EPOCH          = 2026-02-17T05:19:29.757216
MEAN_MOTION    = 14.85349720
ECCENTRICITY   = .0017953
INCLINATION    = 82.5037
RA_OF_ASC_NODE = 316.0860
ARG_OF_PERICENTER = 229.5465
MEAN_ANOMALY   = 130.4187

EPHEMERIS_TYPE = 0
CLASSIFICATION_TYPE = U
NORAD_CAT_ID   = 17912
ELEMENT_SET_NO = 999
REV_AT_EPOCH   = 7619
BSTAR          = .57944E-4
MEAN_MOTION_DOT = .523E-5
MEAN_MOTION_DDOT = 0

CCSDS_OMM_VERS = 2.0
CREATION_DATE  = 
ORIGINATOR     = 

OBJECT_NAME    = COSMOS 1844
OBJECT_ID      = 1987-041A
CENTER_NAME    = EARTH
REF_FRAME      = TEME
TIME_SYSTEM    = UTC
MEAN_ELEMENT_THEORY = SGP/SGP4

EPOCH          = 2026-02-17T12:42:28.620288
MEAN_MOTION    = 14.14548891
ECCENTRICITY   = .00290495
INCLINATION    = 70.8980
RA_OF_ASC_NODE = 76.7001
ARG_OF_PERICENTER = 50.0513
MEAN_ANOMALY   = 310.3154

EPHEMERIS_TYPE = 0
CLASSIFICATION_TYPE = U
NORAD_CAT_ID   = 17973
ELEMENT_SET_NO = 999
REV_AT_EPOCH   = 73
BSTAR          = .20293056E-3
MEAN_MOTION_DOT = .343E-5
MEAN_MOTION_DDOT = 0

CCSDS_OMM_VERS = 2.0
CREATION_DATE  = 
ORIGINATOR     = 

OBJECT_NAME    = SL-14 R/B
OBJECT_ID      = 1987-055B
CENTER_NAME    = EARTH
REF_FRAME      = TEME
TIME_SYSTEM    = UTC
MEAN_ELEMENT_THEORY = SGP/SGP4

EPOCH          = 2026-02-17T08:05:26.419776
MEAN_MOTION    = 14.85603165
ECCENTRICITY   = .00223264
INCLINATION    = 82.5010
RA_OF_ASC_NODE = 8.2086
ARG_OF_PERICENTER = 81.3555
MEAN_ANOMALY   = 279.0190

EPHEMERIS_TYPE = 0
CLASSIFICATION_TYPE = U
NORAD_CAT_ID   = 18153
ELEMENT_SET_NO = 999
REV_AT_EPOCH   = 6691
BSTAR          = .64091803E-4
MEAN_MOTION_DOT = .581E-5
MEAN_MOTION_DDOT = 0

CCSDS_OMM_VERS = 2.0
CREATION_DATE  = 
ORIGINATOR     = 

OBJECT_NAME    = COSMOS 1867
OBJECT_ID      = 1987-060A
CENTER_NAME    = EARTH
REF_FRAME      = TEME
TIME_SYSTEM    = UTC
MEAN_ELEMENT_THEORY = SGP/SGP4

EPOCH          = 2026-02-17T06:01:48.541728
MEAN_MOTION    = 14.31499693
ECCENTRICITY   = .0014172
INCLINATION    = 65.0122
RA_OF_ASC_NODE = 3.9400
ARG_OF_PERICENTER = 277.4997
MEAN_ANOMALY   = 82.4477

EPHEMERIS_TYPE = 0
CLASSIFICATION_TYPE = U
NORAD_CAT_ID   = 18187
ELEMENT_SET_NO = 999
REV_AT_EPOCH   = 1701
BSTAR          = .23505E-4
MEAN_MOTION_DOT = -.38E-6
MEAN_MOTION_DDOT = 0

CCSDS_OMM_VERS = 2.0
CREATION_DATE  = 
ORIGINATOR     = 

OBJECT_NAME    = SL-14 R/B
OBJECT_ID      = 1988-001B
CENTER_NAME    = EARTH
REF_FRAME      = TEME
TIME_SYSTEM    = UTC
MEAN_ELEMENT_THEORY = SGP/SGP4

EPOCH          = 2026-02-17T12:47:36.891168
MEAN_MOTION    = 14.85501778
ECCENTRICITY   = .00168681
INCLINATION    = 82.5117
RA_OF_ASC_NODE = 214.3171
ARG_OF_PERICENTER = 308.1690
MEAN_ANOMALY   = 51.8006

EPHEMERIS_TYPE = 0
CLASSIFICATION_TYPE = U
NORAD_CAT_ID   = 18749
ELEMENT_SET_NO = 999
REV_AT_EPOCH   = 3903
BSTAR          = .53359691E-4
MEAN_MOTION_DOT = .485E-5
MEAN_MOTION_DDOT = 0

