SL-14 R/B               
1 16792U 86046B   26048.53333785  .00000423  00000+0  45967-4 0  9999
2 16792  82.4799  99.2315 0021632 296.2439  63.6554 14.85570007123411
SL-14 R/B               
1 16882U 86055B   26048.32704234  .00000527  00000+0  57821-4 0  9994
2 16882  82.5232 145.8085 0019896  43.2685  15.2827 14.85621730116348
AJISAI (EGS)            
1 16908U 86061A   26048.56990068 -.00000102  00000+0 -33388-4 0  9991
2 16908  50.0088 155.2162 0011234 235.1852 245.4766 12.44515380465491
COSMOS 1812             
1 17295U 87003A   26048.56912677  .00391259  64614-4  71708-3 0  9995
2 17295  82.4748 218.5657 0002959 301.1914  58.9075 16.01292498141245
SL-14 R/B               
1 17567U 87024B   26048.57409718  .00000432  00000+0  46429-4 0  9995
2 17567  82.5275 111.6719 0017378 331.8019  28.2255 14.86112329 85143
COSMOS 1833             
1 17589U 87027A   26048.33131080 -.00000045  00000+0  15188-5 0  9990
2 17589  70.9227   8.8029 0024861 242.2527 117.6073 14.13057385  7448
SL-16 R/B               
1 17590U 87027B   26048.15220202  .00000194  00000+0  11993-3 0  9999
2 17590  71.0042 319.7724 0004575 179.2491 180.8640 14.17163565 12431
SL-14 R/B               
1 17912U 87038B   26048.22187219  .00000523  00000+0  57944-4 0  9990
2 17912  82.5037 316.0860 0017953 229.5465 130.4187 14.85349720 76199
COSMOS 1844             
1 17973U 87041A   26048.52949792  .00000343  00000+0  20293-3 0  9992
2 17973  70.8980  76.7001 0029049  50.0513 310.3154 14.14548891   732
SL-14 R/B               
1 18153U 87055B   26048.33711134  .00000581  00000+0  64092-4 0  9994
2 18153  82.5010   8.2086 0022326  81.3555 279.0190 14.85603165 66911
COSMOS 1867             
1 18187U 87060A   26048.25125627 -.00000038  00000+0  23505-4 0  9996
2 18187  65.0122   3.9400 0014172 277.4997  82.4477 14.31499693 17019
SL-14 R/B               
1 18749U 88001B   26048.53306587  .00000485  00000+0  53360-4 0  9990
2 18749  82.5117 214.3171 0016868 308.1690  51.8006 14.85501778 39031
